IRIDIUM 102 [+]         
1 41920U 17003D   17346.31180399  .00000095  00000-0  26736-4 0  9994
2 41920  86.3961 307.5298 0002136  93.2587 266.8853 14.34217362 47687
